{
  "norad_id": 58680,
  "name": "STARLINK-31112",
  "history": [
    {
      "epoch": "2026-03-28T23:13:07.358592",
      "apogee_km": 484.3492431574814,
      "perigee_km": 481.7489908428606,
      "latitude_deg": -0.88152109651292,
      "longitude_deg": 140.8748428800609,
      "semi_major_axis_km": 6861.186117000171,
      "eccentricity": 0.00018949,
      "inclination_deg": 43.0043,
      "raan_deg": 336.3432,
      "arg_perigee_deg": 259.2868,
      "mean_anomaly_deg": 100.777,
      "mean_motion_rev_day": 15.27579993
    },
    {
      "epoch": "2026-03-29T00:47:16.658016",
      "apogee_km": 484.3492394201912,
      "perigee_km": 481.7365021254018,
      "latitude_deg": -37.65172794678906,
      "longitude_deg": 147.15184224001132,
      "semi_major_axis_km": 6861.179870772797,
      "eccentricity": 0.0001904,
      "inclination_deg": 43.0013,
      "raan_deg": 335.9758,
      "arg_perigee_deg": 263.7225,
      "mean_anomaly_deg": 96.341,
      "mean_motion_rev_day": 15.27582079
    }
  ]
}